[{"OBJECT_NAME":"STARLINK-5794","OBJECT_ID":"2023-042W","EPOCH":"2025-07-28T10:50:04.436736","MEAN_MOTION":15.02534391,"ECCENTRICITY":0.00011,"INCLINATION":43.0026,"RA_OF_ASC_NODE":194.1704,"ARG_OF_PERICENTER":280.8339,"MEAN_ANOMALY":79.238,"EPHEMERIS_TYPE":0,"CLASSIFICATION_TYPE":"U","NORAD_CAT_ID":56006,"ELEMENT_SET_NO":999,"REV_AT_EPOCH":12918,"BSTAR":2.7236e-5,"MEAN_MOTION_DOT":1.64e-6,"MEAN_MOTION_DDOT":0},{"OBJECT_NAME":"STARLINK-5806","OBJECT_ID":"2023-042X","EPOCH":"2025-07-28T15:42:03.346560","MEAN_MOTION":15.0253587,"ECCENTRICITY":0.0001105,"INCLINATION":43.0021,"RA_OF_ASC_NODE":193.1143,"ARG_OF_PERICENTER":292.0249,"MEAN_ANOMALY":68.0475,"EPHEMERIS_TYPE":0,"CLASSIFICATION_TYPE":"U","NORAD_CAT_ID":56007,"ELEMENT_SET_NO":999,"REV_AT_EPOCH":12955,"BSTAR":-2.8684e-5,"MEAN_MOTION_DOT":-5.91e-6,"MEAN_MOTION_DDOT":0},{"OBJECT_NAME":"STARLINK-5803","OBJECT_ID":"2023-042Y","EPOCH":"2025-07-28T05:42:16.804800","MEAN_MOTION":15.02534088,"ECCENTRICITY":0.0001344,"INCLINATION":43.003,"RA_OF_ASC_NODE":195.9904,"ARG_OF_PERICENTER":284.5152,"MEAN_ANOMALY":75.5541,"EPHEMERIS_TYPE":0,"CLASSIFICATION_TYPE":"U","NORAD_CAT_ID":56008,"ELEMENT_SET_NO":999,"REV_AT_EPOCH":12948,"BSTAR":2.4733e-5,"MEAN_MOTION_DOT":1.3e-6,"MEAN_MOTION_DDOT":0},{"OBJECT_NAME":"STARLINK-5964","OBJECT_ID":"2023-042Z","EPOCH":"2025-07-28T10:51:40.301856","MEAN_MOTION":15.02535747,"ECCENTRICITY":0.0001288,"INCLINATION":43.0029,"RA_OF_ASC_NODE":194.1774,"ARG_OF_PERICENTER":274.2715,"MEAN_ANOMALY":85.798,"EPHEMERIS_TYPE":0,"CLASSIFICATION_TYPE":"U","NORAD_CAT_ID":56009,"ELEMENT_SET_NO":999,"REV_AT_EPOCH":12918,"BSTAR":2.0925e-5,"MEAN_MOTION_DOT":7.9e-7,"MEAN_MOTION_DDOT":0},{"OBJECT_NAME":"STARLINK-5968","OBJECT_ID":"2023-042AA","EPOCH":"2025-07-28T10:45:16.674624","MEAN_MOTION":15.02536461,"ECCENTRICITY":0.0001313,"INCLINATION":43.0029,"RA_OF_ASC_NODE":194.1452,"ARG_OF_PERICENTER":281.233,"MEAN_ANOMALY":78.8364,"EPHEMERIS_TYPE":0,"CLASSIFICATION_TYPE":"U","NORAD_CAT_ID":56010,"ELEMENT_SET_NO":999,"REV_AT_EPOCH":12918,"BSTAR":9.5298e-6,"MEAN_MOTION_DOT":-7.5e-7,"MEAN_MOTION_DDOT":0},{"OBJECT_NAME":"STARLINK-5936","OBJECT_ID":"2023-042AB","EPOCH":"2025-07-28T15:29:48.336576","MEAN_MOTION":15.02535144,"ECCENTRICITY":0.0001176,"INCLINATION":43.0026,"RA_OF_ASC_NODE":180.8953,"ARG_OF_PERICENTER":280.6095,"MEAN_ANOMALY":79.4615,"EPHEMERIS_TYPE":0,"CLASSIFICATION_TYPE":"U","NORAD_CAT_ID":56011,"ELEMENT_SET_NO":999,"REV_AT_EPOCH":12969,"BSTAR":2.8631e-5,"MEAN_MOTION_DOT":1.83e-6,"MEAN_MOTION_DDOT":0},{"OBJECT_NAME":"STARLINK-5940","OBJECT_ID":"2023-042AC","EPOCH":"2025-07-29T04:23:37.143456","MEAN_MOTION":15.02547017,"ECCENTRICITY":0.0001159,"INCLINATION":43.0023,"RA_OF_ASC_NODE":178.0508,"ARG_OF_PERICENTER":273.7726,"MEAN_ANOMALY":86.2984,"EPHEMERIS_TYPE":0,"CLASSIFICATION_TYPE":"U","NORAD_CAT_ID":56012,"ELEMENT_SET_NO":999,"REV_AT_EPOCH":12977,"BSTAR":0.00021442,"MEAN_MOTION_DOT":2.695e-5,"MEAN_MOTION_DDOT":0},{"OBJECT_NAME":"STARLINK-5941","OBJECT_ID":"2023-042AD","EPOCH":"2025-07-28T09:04:45.304896","MEAN_MOTION":15.02534598,"ECCENTRICITY":0.0001327,"INCLINATION":43.003,"RA_OF_ASC_NODE":194.481,"ARG_OF_PERICENTER":280.594,"MEAN_ANOMALY":79.4753,"EPHEMERIS_TYPE":0,"CLASSIFICATION_TYPE":"U","NORAD_CAT_ID":56013,"ELEMENT_SET_NO":999,"REV_AT_EPOCH":12917,"BSTAR":3.501e-5,"MEAN_MOTION_DOT":2.69e-6,"MEAN_MOTION_DDOT":0},{"OBJECT_NAME":"STARLINK-5942","OBJECT_ID":"2023-042AE","EPOCH":"2025-07-29T04:14:03.622848","MEAN_MOTION":15.02530732,"ECCENTRICITY":0.0001265,"INCLINATION":43.0023,"RA_OF_ASC_NODE":177.9956,"ARG_OF_PERICENTER":282.1139,"MEAN_ANOMALY":77.9561,"EPHEMERIS_TYPE":0,"CLASSIFICATION_TYPE":"U","NORAD_CAT_ID":56014,"ELEMENT_SET_NO":999,"REV_AT_EPOCH":12977,"BSTAR":0.00012768,"MEAN_MOTION_DOT":1.521e-5,"MEAN_MOTION_DDOT":0},{"OBJECT_NAME":"STARLINK-5939","OBJECT_ID":"2023-042AF","EPOCH":"2025-07-28T15:33:00.275904","MEAN_MOTION":15.02533394,"ECCENTRICITY":0.0001157,"INCLINATION":43.0031,"RA_OF_ASC_NODE":180.9137,"ARG_OF_PERICENTER":283.1168,"MEAN_ANOMALY":76.9545,"EPHEMERIS_TYPE":0,"CLASSIFICATION_TYPE":"U","NORAD_CAT_ID":56015,"ELEMENT_SET_NO":999,"REV_AT_EPOCH":12969,"BSTAR":-8.2265e-6,"MEAN_MOTION_DOT":-3.15e-6,"MEAN_MOTION_DDOT":0},{"OBJECT_NAME":"STARLINK-5943","OBJECT_ID":"2023-042AG","EPOCH":"2025-07-29T00:38:36.109248","MEAN_MOTION":15.02535522,"ECCENTRICITY":0.0001141,"INCLINATION":43.0029,"RA_OF_ASC_NODE":178.5932,"ARG_OF_PERICENTER":271.7688,"MEAN_ANOMALY":88.3024,"EPHEMERIS_TYPE":0,"CLASSIFICATION_TYPE":"U","NORAD_CAT_ID":56016,"ELEMENT_SET_NO":999,"REV_AT_EPOCH":12975,"BSTAR":2.1289e-5,"MEAN_MOTION_DOT":8.4e-7,"MEAN_MOTION_DDOT":0},{"OBJECT_NAME":"STARLINK-5934","OBJECT_ID":"2023-042AH","EPOCH":"2025-07-28T15:20:12.924672","MEAN_MOTION":15.02535488,"ECCENTRICITY":0.0001228,"INCLINATION":43.0031,"RA_OF_ASC_NODE":180.8454,"ARG_OF_PERICENTER":288.1933,"MEAN_ANOMALY":71.8775,"EPHEMERIS_TYPE":0,"CLASSIFICATION_TYPE":"U","NORAD_CAT_ID":56017,"ELEMENT_SET_NO":999,"REV_AT_EPOCH":12969,"BSTAR":3.0427e-5,"MEAN_MOTION_DOT":2.07e-6,"MEAN_MOTION_DDOT":0},{"OBJECT_NAME":"STARLINK-5945","OBJECT_ID":"2023-042AJ","EPOCH":"2025-07-28T07:07:12.951552","MEAN_MOTION":15.02537546,"ECCENTRICITY":0.0001341,"INCLINATION":43.0034,"RA_OF_ASC_NODE":182.5777,"ARG_OF_PERICENTER":288.8122,"MEAN_ANOMALY":71.2575,"EPHEMERIS_TYPE":0,"CLASSIFICATION_TYPE":"U","NORAD_CAT_ID":56018,"ELEMENT_SET_NO":999,"REV_AT_EPOCH":12930,"BSTAR":6.8788e-5,"MEAN_MOTION_DOT":7.26e-6,"MEAN_MOTION_DDOT":0},{"OBJECT_NAME":"STARLINK-5949","OBJECT_ID":"2023-042AK","EPOCH":"2025-07-29T04:10:50.118816","MEAN_MOTION":15.02535423,"ECCENTRICITY":0.0001079,"INCLINATION":43.0026,"RA_OF_ASC_NODE":177.9822,"ARG_OF_PERICENTER":278.429,"MEAN_ANOMALY":81.643,"EPHEMERIS_TYPE":0,"CLASSIFICATION_TYPE":"U","NORAD_CAT_ID":56019,"ELEMENT_SET_NO":999,"REV_AT_EPOCH":12977,"BSTAR":4.3537e-5,"MEAN_MOTION_DOT":3.85e-6,"MEAN_MOTION_DDOT":0},{"OBJECT_NAME":"STARLINK-5912","OBJECT_ID":"2023-042AL","EPOCH":"2025-07-28T08:47:43.104768","MEAN_MOTION":15.02534423,"ECCENTRICITY":0.0001282,"INCLINATION":43.0028,"RA_OF_ASC_NODE":182.2381,"ARG_OF_PERICENTER":269.2975,"MEAN_ANOMALY":90.7721,"EPHEMERIS_TYPE":0,"CLASSIFICATION_TYPE":"U","NORAD_CAT_ID":56020,"ELEMENT_SET_NO":999,"REV_AT_EPOCH":12965,"BSTAR":6.0076e-5,"MEAN_MOTION_DOT":6.08e-6,"MEAN_MOTION_DDOT":0},{"OBJECT_NAME":"STARLINK-5907","OBJECT_ID":"2023-042AM","EPOCH":"2025-07-28T15:15:25.266240","MEAN_MOTION":15.02535318,"ECCENTRICITY":0.0001125,"INCLINATION":43.002,"RA_OF_ASC_NODE":180.8222,"ARG_OF_PERICENTER":273.1205,"MEAN_ANOMALY":86.9509,"EPHEMERIS_TYPE":0,"CLASSIFICATION_TYPE":"U","NORAD_CAT_ID":56021,"ELEMENT_SET_NO":999,"REV_AT_EPOCH":12969,"BSTAR":3.0917e-5,"MEAN_MOTION_DOT":2.14e-6,"MEAN_MOTION_DDOT":0},{"OBJECT_NAME":"STARLINK-5783","OBJECT_ID":"2023-042AN","EPOCH":"2025-07-28T14:51:26.758080","MEAN_MOTION":15.02535496,"ECCENTRICITY":0.0001162,"INCLINATION":43.0027,"RA_OF_ASC_NODE":180.6931,"ARG_OF_PERICENTER":285.5954,"MEAN_ANOMALY":74.476,"EPHEMERIS_TYPE":0,"CLASSIFICATION_TYPE":"U","NORAD_CAT_ID":56022,"ELEMENT_SET_NO":999,"REV_AT_EPOCH":12935,"BSTAR":-6.2168e-6,"MEAN_MOTION_DOT":-2.88e-6,"MEAN_MOTION_DDOT":0},{"OBJECT_NAME":"STARLINK-5771","OBJECT_ID":"2023-042AP","EPOCH":"2025-07-28T14:59:26.315232","MEAN_MOTION":15.02534539,"ECCENTRICITY":0.0001106,"INCLINATION":43.0026,"RA_OF_ASC_NODE":180.7371,"ARG_OF_PERICENTER":276.688,"MEAN_ANOMALY":83.3836,"EPHEMERIS_TYPE":0,"CLASSIFICATION_TYPE":"U","NORAD_CAT_ID":56023,"ELEMENT_SET_NO":999,"REV_AT_EPOCH":12969,"BSTAR":3.4493e-5,"MEAN_MOTION_DOT":2.62e-6,"MEAN_MOTION_DDOT":0},{"OBJECT_NAME":"STARLINK-5772","OBJECT_ID":"2023-042AQ","EPOCH":"2025-07-28T14:37:03.838080","MEAN_MOTION":15.02533611,"ECCENTRICITY":0.0001125,"INCLINATION":43.0021,"RA_OF_ASC_NODE":180.6194,"ARG_OF_PERICENTER":275.8276,"MEAN_ANOMALY":84.2438,"EPHEMERIS_TYPE":0,"CLASSIFICATION_TYPE":"U","NORAD_CAT_ID":56024,"ELEMENT_SET_NO":999,"REV_AT_EPOCH":12935,"BSTAR":4.8078e-5,"MEAN_MOTION_DOT":4.46e-6,"MEAN_MOTION_DDOT":0},{"OBJECT_NAME":"STARLINK-5766","OBJECT_ID":"2023-042AR","EPOCH":"2025-07-29T04:25:13.036224","MEAN_MOTION":15.02536102,"ECCENTRICITY":0.0001074,"INCLINATION":43.002,"RA_OF_ASC_NODE":178.0477,"ARG_OF_PERICENTER":277.4182,"MEAN_ANOMALY":82.6539,"EPHEMERIS_TYPE":0,"CLASSIFICATION_TYPE":"U","NORAD_CAT_ID":56025,"ELEMENT_SET_NO":999,"REV_AT_EPOCH":12977,"BSTAR":2.9715e-5,"MEAN_MOTION_DOT":1.98e-6,"MEAN_MOTION_DDOT":0},{"OBJECT_NAME":"STARLINK-5770","OBJECT_ID":"2023-042AS","EPOCH":"2025-07-28T14:49:50.900736","MEAN_MOTION":15.025409,"ECCENTRICITY":0.0001344,"INCLINATION":43.0025,"RA_OF_ASC_NODE":180.683,"ARG_OF_PERICENTER":287.6321,"MEAN_ANOMALY":72.4374,"EPHEMERIS_TYPE":0,"CLASSIFICATION_TYPE":"U","NORAD_CAT_ID":56026,"ELEMENT_SET_NO":999,"REV_AT_EPOCH":12935,"BSTAR":-4.0533e-5,"MEAN_MOTION_DOT":-7.51e-6,"MEAN_MOTION_DDOT":0},{"OBJECT_NAME":"STARLINK-5777","OBJECT_ID":"2023-042AT","EPOCH":"2025-07-28T06:56:00.177216","MEAN_MOTION":15.02533279,"ECCENTRICITY":0.000121,"INCLINATION":43.0026,"RA_OF_ASC_NODE":182.5182,"ARG_OF_PERICENTER":271.2841,"MEAN_ANOMALY":88.7863,"EPHEMERIS_TYPE":0,"CLASSIFICATION_TYPE":"U","NORAD_CAT_ID":56027,"ELEMENT_SET_NO":999,"REV_AT_EPOCH":12930,"BSTAR":1.5058e-5,"MEAN_MOTION_DOT":0,"MEAN_MOTION_DDOT":0},{"OBJECT_NAME":"STARLINK-5779","OBJECT_ID":"2023-042AU","EPOCH":"2025-07-28T14:30:39.883392","MEAN_MOTION":15.0253768,"ECCENTRICITY":0.0001116,"INCLINATION":43.0019,"RA_OF_ASC_NODE":180.5809,"ARG_OF_PERICENTER":283.6268,"MEAN_ANOMALY":76.445,"EPHEMERIS_TYPE":0,"CLASSIFICATION_TYPE":"U","NORAD_CAT_ID":56028,"ELEMENT_SET_NO":999,"REV_AT_EPOCH":12969,"BSTAR":3.3255e-5,"MEAN_MOTION_DOT":2.46e-6,"MEAN_MOTION_DDOT":0}]
